NORAD_CAT_ID,OBJECT_NAME,OBJECT_TYPE,EPOCH,MEAN_MOTION,ECCENTRICITY,INCLINATION,RA_OF_ASC_NODE,ARG_OF_PERICENTER,MEAN_ANOMALY,BSTAR,MEAN_MOTION_DOT,MEAN_MOTION_DDOT,TLE_LINE0,TLE_LINE1,TLE_LINE2,SEMIMAJOR_AXIS,PERIOD,APOGEE,PERIGEE,DECAYED
52839.0,STARLINK-4048,PAYLOAD,2024-08-17 12:54:53,15.08881452,0.0001158,53.2144,69.144,81.7411,278.3712,0.0011974,0.00018842,0.0,0 STARLINK-4048,1 52839U 22062K   24230.53812081  .00018842  00000-0  11974-2 0  9995,2 52839  53.2144  69.1440 0001158  81.7411 278.3712 15.08881452119866,6917.754,95.435,540.42,538.818,0.0
52839.0,STARLINK-4048,PAYLOAD,2024-08-18 19:07:14,15.08822448,0.0001637,53.2159,63.4892,127.6421,232.472,-1.1301e-05,-4.68e-06,0.0,0 STARLINK-4048,1 52839U 22062K   24231.79669096 -.00000468  00000-0 -11301-4 0  9993,2 52839  53.2159  63.4892 0001637 127.6421 232.4720 15.08822448120540,6917.934,95.439,540.932,538.667,0.0
52839.0,STARLINK-4048,PAYLOAD,2024-08-18 22:17:59,15.08837903,0.000139,53.2156,62.8966,80.3619,279.753,0.0011274,0.00017699,0.0,0 STARLINK-4048,1 52839U 22062K   24231.92916493  .00017699  00000-0  11274-2 0  9993,2 52839  53.2156  62.8966 0001390  80.3619 279.7530 15.08837903120075,6917.887,95.438,540.713,538.79,0.0
52839.0,STARLINK-4048,PAYLOAD,2024-08-19 06:14:55,15.08827198,0.0001429,53.2161,61.4109,91.651,268.4646,0.0011485,0.00018031,0.0,0 STARLINK-4048,1 52839U 22062K   24232.26036916  .00018031  00000-0  11485-2 0  9999,2 52839  53.2161  61.4109 0001429  91.6510 268.4646 15.08827198120611,6917.92,95.438,540.773,538.796,0.0
52839.0,STARLINK-4048,PAYLOAD,2024-08-20 06:05:43,15.08848066,0.0001656,53.2177,56.9438,126.2008,233.9137,0.0006525,0.00010114,0.0,0 STARLINK-4048,1 52839U 22062K   24233.25397321  .00010114  00000-0  65250-3 0  9993,2 52839  53.2177  56.9438 0001656 126.2008 233.9137 15.08848066120766,6917.856,95.437,540.866,538.575,0.0
52839.0,STARLINK-4048,PAYLOAD,2024-08-20 20:24:11,15.08850506,0.0001467,53.2174,54.2713,105.3409,254.7746,0.0003066,4.596e-05,0.0,0 STARLINK-4048,1 52839U 22062K   24233.85013109  .00004596  00000-0  30660-3 0  9992,2 52839  53.2174  54.2713 0001467 105.3409 254.7746 15.08850506120852,6917.848,95.437,540.728,538.698,0.0
52839.0,STARLINK-4048,PAYLOAD,2024-08-21 12:18:02,15.0884232,0.0001716,53.2179,51.2947,117.7835,242.3331,0.00013775,1.905e-05,0.0,0 STARLINK-4048,1 52839U 22062K   24234.51253426  .00001905  00000-0  13775-3 0  9993,2 52839  53.2179  51.2947 0001716 117.7835 242.3331 15.08842320120959,6917.873,95.437,540.925,538.551,0.0
52839.0,STARLINK-4048,PAYLOAD,2024-08-21 17:04:12,15.08841729,0.0001604,53.2176,50.4038,113.8578,246.2582,0.00012864,1.76e-05,0.0,0 STARLINK-4048,1 52839U 22062K   24234.71125485  .00001760  00000-0  12864-3 0  9995,2 52839  53.2176  50.4038 0001604 113.8578 246.2582 15.08841729120497,6917.875,95.437,540.85,538.63,0.0
